IRIDIUM 39              
1 25042U 97069D   26028.74889402  .00001139  00000+0  29125-3 0  9999
2 25042  86.3922 114.4726 0015481 272.6205  87.3227 14.49596155481633
IRIDIUM 38              
1 25043U 97069E   26028.72790125  .00000785  00000+0  25134-3 0  9993
2 25043  86.4003 138.3551 0004030  87.5042 272.6617 14.38375994478379
IRIDIUM 42              
1 25077U 97077A   26028.80342280  .00000749  00000+0  24815-3 0  9998
2 25077  86.4013 144.7717 0002910  96.2190 263.9339 14.36586666473588
IRIDIUM 44              
1 25078U 97077B   26028.70408119  .00000595  00000+0  18104-3 0  9995
2 25078  86.3986 126.1408 0002913  55.0475 305.0998 14.40481719476164
IRIDIUM 45              
1 25104U 97082A   26028.80807920  .00034603  00000+0  90283-3 0  9990
2 25104  86.3546 297.4300 0090887 197.8461 161.9594 15.34454608486484
IRIDIUM 24              
1 25105U 97082B   26028.93860203  .00000914  00000+0  27033-3 0  9999
2 25105  86.3943 344.5267 0013239  57.5535 302.6944 14.42392274475751
IRIDIUM 51              
1 25262U 98018A   26028.74570585  .00264906  00000+0  15572-2 0  9990
2 25262  86.3695 301.8897 0043896  86.7880 273.8414 15.76160205482016
IRIDIUM 57              
1 25273U 98019B   26028.59611295  .00000514  00000+0  17008-3 0  9990
2 25273  86.3917  50.7240 0002333  88.5047 271.6417 14.36092593457136
